NORAD_CAT_ID,OBJECT_NAME,OBJECT_TYPE,EPOCH,MEAN_MOTION,ECCENTRICITY,INCLINATION,RA_OF_ASC_NODE,ARG_OF_PERICENTER,MEAN_ANOMALY,BSTAR,MEAN_MOTION_DOT,MEAN_MOTION_DDOT,TLE_LINE0,TLE_LINE1,TLE_LINE2,SEMIMAJOR_AXIS,PERIOD,APOGEE,PERIGEE,DECAYED
52635.0,STARLINK-3978,PAYLOAD,2022-08-04 20:00:01,15.45470818,0.0001372,53.2173,34.9367,70.7087,121.1884,-0.023893,-0.01055159,0.0,0 STARLINK-3978,1 52635U 22052AP  22216.83334491 -.01055159  00000-0 -23893-1 0  9994,2 52635  53.2173  34.9367 0001372  70.7087 121.1884 15.45470818 13279,6808.132,93.175,430.931,429.06300000000016,0.0
52635.0,STARLINK-3978,PAYLOAD,2022-08-04 22:00:00,15.45280702,0.0001210999999999,53.2174,34.5407,73.8674,221.902,-0.024029,-0.01054273,0.0,0 STARLINK-3978,1 52635U 22052AP  22216.91667824 -.01054273  00000-0 -24029-1 0  9990,2 52635  53.2174  34.5407 0001211  73.8674 221.9020 15.45280702  1302,6808.69,93.187,431.38,429.731,0.0
52635.0,STARLINK-3978,PAYLOAD,2022-08-05 12:00:00,15.43952135,0.0001262,53.2175,31.7684,63.9881,237.2932,-0.025151,-0.0105434,0.0,0 STARLINK-3978,1 52635U 22052AP  22217.50001157 -.01054340  00000-0 -25151-1 0  9999,2 52635  53.2175  31.7684 0001262  63.9881 237.2932 15.43952135 13371,6812.596,93.267,435.321,433.601,0.0
52635.0,STARLINK-3978,PAYLOAD,2022-08-05 14:00:01,15.43764224,0.0001296,53.2175,31.3736,53.6675,351.0938,-0.025424,-0.01058553,0.0,0 STARLINK-3978,1 52635U 22052AP  22217.58335648 -.01058553  00000-0 -25424-1 0  9995,2 52635  53.2175  31.3736 0001296  53.6675 351.0938 15.43764224  1300,6813.149,93.278,435.897,434.131,0.0
52635.0,STARLINK-3978,PAYLOAD,2022-08-05 22:00:00,15.43000036,0.0001281,53.2173,29.7954,62.7632,35.0292,-0.0258839999999999,-0.01050829,0.0,0 STARLINK-3978,1 52635U 22052AP  22217.91667824 -.01050829  00000-0 -25884-1 0  9994,2 52635  53.2173  29.7954 0001281  62.7632  35.0292 15.43000036  1305,6815.398,93.325,438.136,436.39,0.0
52635.0,STARLINK-3978,PAYLOAD,2022-08-06 04:00:03,15.42433779,0.0001309,53.2173,28.6102,53.1172,354.0256,-0.0265439999999999,-0.01071406,0.0,0 STARLINK-3978,1 52635U 22052AP  22218.16670139 -.01071406  00000-0 -26544-1 0  9993,2 52635  53.2173  28.6102 0001309  53.1172 354.0256 15.42433779 13481,6817.066,93.359,439.823,438.039,0.0
52635.0,STARLINK-3978,PAYLOAD,2022-08-06 14:00:01,15.41483107,0.0001513,53.2175,26.6394,56.232,145.0117,-0.027323,-0.01068439,0.0,0 STARLINK-3978,1 52635U 22052AP  22218.58334491 -.01068439  00000-0 -27323-1 0  9995,2 52635  53.2175  26.6394 0001513  56.2320 145.0117 15.41483107  1301,6819.868,93.417,442.765,440.702,0.0
52635.0,STARLINK-3978,PAYLOAD,2022-08-06 20:00:01,15.40912908,0.0001385,53.2173,25.46,70.0884,79.0078,-0.027829,-0.01067688,0.0,0 STARLINK-3978,1 52635U 22052AP  22218.83334491 -.01067688  00000-0 -27829-1 0  9999,2 52635  53.2173  25.4600 0001385  70.0884  79.0078 15.40912908 13582,6821.551,93.451,444.361,442.471,0.0
52635.0,STARLINK-3978,PAYLOAD,2022-08-06 20:55:48,15.42601266,0.0001192,53.2154,25.3009,9.2583,350.8445,-0.0068718999999999,-0.00292623,0.0,0 STARLINK-3978,1 52635U 22052AP  22218.87209323 -.00292623  00000-0 -68719-2 0  9990,2 52635  53.2154  25.3009 0001192   9.2583 350.8445 15.42601266 13222,6816.571999999999,93.349,439.25,437.625,0.0
52635.0,STARLINK-3978,PAYLOAD,2022-08-07 12:00:00,15.39395121,0.0001428,53.2175,22.3132,60.9343,186.5939,-0.029289,-0.01068377,0.0,0 STARLINK-3978,1 52635U 22052AP  22219.50001157 -.01068377  00000-0 -29289-1 0  9992,2 52635  53.2175  22.3132 0001428  60.9343 186.5939 15.39395121 13687,6826.034000000002,93.543,448.874,446.924,0.0
52635.0,STARLINK-3978,PAYLOAD,2022-08-07 14:00:01,15.39206388,0.0001309,53.2175,21.9213,53.4535,296.1214,-0.029552,-0.01071011,0.0,0 STARLINK-3978,1 52635U 22052AP  22219.58334491 -.01071011  00000-0 -29552-1 0  9992,2 52635  53.2175  21.9213 0001309  53.4535 296.1214 15.39206388  1306,6826.592,93.555,449.35,447.56300000000016,0.0
52635.0,STARLINK-3978,PAYLOAD,2022-08-07 21:51:31,15.40297275,0.0001831,53.2139,20.4047,84.5194,275.60200000000003,-0.0090362,-0.00353433,0.0,0 STARLINK-3978,1 52635U 22052AP  22219.91077900 -.00353433  00000-0 -90362-2 0  9996,2 52635  53.2139  20.4047 0001831  84.5194 275.6020 15.40297275 13386,6823.368,93.488,446.483,443.984,0.0
52635.0,STARLINK-3978,PAYLOAD,2022-08-08 04:00:00,15.37876956,0.0001252999999999,53.2173,19.1764,57.42100000000001,284.8883,-0.030879,-0.01071213,0.0,0 STARLINK-3978,1 52635U 22052AP  22220.16667824 -.01071213  00000-0 -30879-1 0  9995,2 52635  53.2173  19.1764 0001253  57.4210 284.8883 15.37876956 13789,6830.525,93.636,453.246,451.535,0.0
52635.0,STARLINK-3978,PAYLOAD,2022-08-08 14:00:01,15.36926453,0.000159,53.2176,17.2194,48.054,81.7036,-0.031766,-0.01068636,0.0,0 STARLINK-3978,1 52635U 22052AP  22220.58335648 -.01068636  00000-0 -31766-1 0  9998,2 52635  53.2176  17.2194 0001590  48.0540  81.7036 15.36926453  1300,6833.340999999999,93.693,456.293,454.12,0.0
52635.0,STARLINK-3978,PAYLOAD,2022-08-08 22:00:00,15.36164155,0.0001435,53.2173,15.6568,60.9231,113.6514,-0.032381,-0.01063153,0.0,0 STARLINK-3978,1 52635U 22052AP  22220.91667824 -.01063153  00000-0 -32381-1 0  9992,2 52635  53.2173  15.6568 0001435  60.9231 113.6514 15.36164155  1301,6835.602,93.74,458.448,456.486,0.0
52635.0,STARLINK-3978,PAYLOAD,2022-08-09 04:00:00,15.35595724,0.0001537,53.2174,14.4841,48.8481,68.7886,-0.033081,-0.01066136,0.0,0 STARLINK-3978,1 52635U 22052AP  22221.16667824 -.01066136  00000-0 -33081-1 0  9992,2 52635  53.2174  14.4841 0001537  48.8481  68.7886 15.35595724 13942,6837.2890000000025,93.775,460.204,458.103,0.0
52635.0,STARLINK-3978,PAYLOAD,2022-08-09 14:00:01,15.34646842,0.0001519,53.2176,12.5339,52.0273,209.5704,-0.034097,-0.01065884,0.0,0 STARLINK-3978,1 52635U 22052AP  22221.58334491 -.01065884  00000-0 -34097-1 0  9996,2 52635  53.2176  12.5339 0001519  52.0273 209.5704 15.34646842  1309,6840.107,93.833,463.011,460.9330000000001,0.0
52635.0,STARLINK-3978,PAYLOAD,2022-08-09 20:00:01,15.34074574,0.0001414,53.2175,11.366,68.4363,134.8545,-0.034581,-0.01061742,0.0,0 STARLINK-3978,1 52635U 22052AP  22221.83334491 -.01061742  00000-0 -34581-1 0  9991,2 52635  53.2175  11.3660 0001414  68.4363 134.8545 15.34074574 14042,6841.808000000001,93.868,464.64,462.705,0.0
52635.0,STARLINK-3978,PAYLOAD,2022-08-09 22:00:00,15.33887829,0.0001220999999999,53.2172,10.9763,69.5522,234.1874,-0.034935,-0.01065835,0.0,0 STARLINK-3978,1 52635U 22052AP  22221.91667824 -.01065835  00000-0 -34935-1 0  9999,2 52635  53.2172  10.9763 0001221  69.5522 234.1874 15.33887829  1301,6842.363,93.879,465.06300000000016,463.392,0.0
52635.0,STARLINK-3978,PAYLOAD,2022-08-10 12:00:00,15.3255824,0.0001406,53.2174,8.2525,52.0523,233.2419,-0.036438,-0.01065775,0.0,0 STARLINK-3978,1 52635U 22052AP  22222.50001157 -.01065775  00000-0 -36438-1 0  9999,2 52635  53.2174   8.2525 0001406  52.0523 233.2419 15.32558240 14144,6846.32,93.961,469.147,467.222,0.0
52635.0,STARLINK-3978,PAYLOAD,2022-08-10 14:00:01,15.32369763,0.000148,53.2176,7.8643,44.4684,340.8189,-0.036745,-0.01068176,0.0,0 STARLINK-3978,1 52635U 22052AP  22222.58334491 -.01068176  00000-0 -36745-1 0  9996,2 52635  53.2176   7.8643 0001480  44.4684 340.8189 15.32369763  1300,6846.880999999999,93.972,469.76,467.733,0.0
52635.0,STARLINK-3978,PAYLOAD,2022-08-10 22:00:00,15.31609202,0.0001336,53.2171,6.312,54.55,10.1418,-0.037531,-0.01065401,0.0,0 STARLINK-3978,1 52635U 22052AP  22222.91667824 -.01065401  00000-0 -37531-1 0  9994,2 52635  53.2171   6.3120 0001336  54.5500  10.1418 15.31609202  1304,6849.148,94.019,471.92800000000005,470.098,0.0
52635.0,STARLINK-3978,PAYLOAD,2022-08-11 04:00:00,15.31039491,0.0001351999999999,53.2173,5.147,49.6799,313.9679,-0.038264,-0.0106684,0.0,0 STARLINK-3978,1 52635U 22052AP  22223.16667824 -.01066840  00000-0 -38264-1 0  9994,2 52635  53.2173   5.1470 0001352  49.6799 313.9679 15.31039491 14252,6850.847,94.054,473.638,471.785,0.0
52635.0,STARLINK-3978,PAYLOAD,2022-08-11 14:00:01,15.30089116,0.0001674,53.2175,3.2110000000000003,46.8044,93.9599,-0.039329,-0.01064727,0.0,0 STARLINK-3978,1 52635U 22052AP  22223.58334491 -.01064727  00000-0 -39329-1 0  9996,2 52635  53.2175   3.2110 0001674  46.8044  93.9599 15.30089116  1309,6853.683000000001,94.112,476.695,474.401,0.0
52635.0,STARLINK-3978,PAYLOAD,2022-08-11 22:00:00,15.29330862,0.0001468,53.2171,1.6639,60.8463,116.5838,-0.0403209999999999,-0.01066011,0.0,0 STARLINK-3978,1 52635U 22052AP  22223.91667824 -.01066011  00000-0 -40321-1 0  9994,2 52635  53.2171   1.6639 0001468  60.8463 116.5838 15.29330862 14368,6855.948,94.159,478.82,476.807,0.0
52635.0,STARLINK-3978,PAYLOAD,2022-08-12 14:00:01,15.2780946,0.000155,53.2174,358.5738,54.716,193.3105,-0.042089,-0.01062102,0.0,0 STARLINK-3978,1 52635U 22052AP  22224.58334491 -.01062102  00000-0 -42089-1 0  9999,2 52635  53.2174 358.5738 0001550  54.7160 193.3105 15.27809460  1306,6860.499,94.253,483.427,481.301,0.0
52635.0,STARLINK-3978,PAYLOAD,2022-08-12 20:00:01,15.27237228,0.0001457,53.2172,357.4176,63.4773,120.1456,-0.042643,-0.0105774,0.0,0 STARLINK-3978,1 52635U 22052AP  22224.83335648 -.01057740  00000-0 -42643-1 0  9990,2 52635  53.2172 357.4176 0001457  63.4773 120.1456 15.27237228 14501,6862.2130000000025,94.288,485.077,483.078,0.0
52635.0,STARLINK-3978,PAYLOAD,2022-08-12 22:00:01,15.27053898,0.000131,53.2171,357.0317,67.4047,214.6127,-0.043358,-0.0106847,0.0,0 STARLINK-3978,1 52635U 22052AP  22224.91668981 -.01068470  00000-0 -43358-1 0  9994,2 52635  53.2171 357.0317 0001310  67.4047 214.6127 15.27053898  1306,6862.762,94.299,485.526,483.728,0.0
52635.0,STARLINK-3978,PAYLOAD,2022-08-13 14:00:01,15.25532585,0.0001408,53.2174,353.9526,51.7164,295.3575,-0.045218,-0.01064302,0.0,0 STARLINK-3978,1 52635U 22052AP  22225.58334491 -.01064302  00000-0 -45218-1 0  9991,2 52635  53.2174 353.9526 0001408  51.7164 295.3575 15.25532585  1306,6867.324000000001,94.393,490.156,488.222,0.0
